DMSP 5D-3 F16 (USA 172) 
1 28054U 03048A   26192.21707475 -.00000038  00000+0  38004-5 0  9998
2 28054  98.9887 216.2037 0008198  80.9282 350.7236 14.14484849172885
METEOSAT-9 (MSG-2)      
1 28912U 05049B   26191.71844315  .00000124  00000+0  00000+0 0  9997
2 28912   9.4120  53.9304 0002029 357.9991 181.0196  1.00270013  7232
DMSP 5D-3 F17 (USA 191) 
1 29522U 06050A   26192.21150609 -.00000002  00000+0  21305-4 0  9992
2 29522  98.7385 198.2905 0009965 354.4858   5.6204 14.14995998 15824
FENGYUN 3A              
1 32958U 08026A   26190.74299394  .00000025  00000+0  32429-4 0  9998
2 32958  98.6887 131.1547 0009815  65.9784 294.2419 14.19575738938606
GOES 14                 
1 35491U 09033A   26192.17892022 -.00000349  00000+0  00000+0 0  9993
2 35491   1.7487  82.7447 0001887  39.8560 358.4650  1.00100133  6835
DMSP 5D-3 F18 (USA 210) 
1 35951U 09057A   26192.18441065  .00000188  00000+0  12017-3 0  9993
2 35951  98.9053 172.9031 0010987 176.7483 183.3764 14.14909957862987
EWS-G2 (GOES 15)        
1 36411U 10008A   26192.07844678  .00000028  00000+0  00000+0 0  9996
2 36411   1.3404  82.5149 0005209  53.1298 244.9502  1.00268091 59874
COMS 1                  
1 36744U 10032A   26192.06163337 -.00000236  00000+0  00000+0 0  9999
2 36744   4.8635  75.0680 0011274  14.7411 199.8313  0.99168910 51329
FENGYUN 3B              
1 37214U 10059A   26192.21161385  .00000127  00000+0  89081-4 0  9998
2 37214  98.9613 238.3265 0023068 117.4306 329.0249 14.14846346810824
SUOMI NPP               
1 37849U 11061A   26192.16479477  .00000026  00000+0  33199-4 0  9991
2 37849  98.7956 132.8777 0000592 241.1986 118.9130 14.19522148761845
METEOSAT-10 (MSG-3)     
1 38552U 12035B   26191.99461493 -.00000004  00000+0  00000+0 0  9991
2 38552   4.7253  60.8987 0001102  18.5793 207.5555  1.00270042 51091
METOP-B                 
1 38771U 12049A   26192.19291282  .00000048  00000+0  41953-4 0  9993
2 38771  98.6491 243.2117 0001050 280.7824  79.3236 14.21445692716677
INSAT-3D                
1 39216U 13038B   26192.15114360 -.00000334  00000+0  00000+0 0  9996
2 39216   1.9850  82.2390 0000505  82.7888 307.9720  1.00270390 47327
FENGYUN 3C              
1 39260U 13052A   26192.21410221  .00000023  00000+0  33001-4 0  9999
2 39260  98.4995 164.9875 0013830 318.1394  41.8722 14.15760254661967
METEOR-M 2              
1 40069U 14037A   26192.21893324  .00000059  00000+0  46077-4 0  9997
2 40069  98.5124 167.1075 0005408 339.9390  20.1575 14.21468270622735
HIMAWARI-8              
1 40267U 14060A   26190.88188485 -.00000264  00000+0  00000+0 0  9999
2 40267   0.0305 288.7018 0000829 203.5253 253.7182  1.00269387 42989
FENGYUN 2G              
1 40367U 14090A   26191.82108204 -.00000296  00000+0  00000+0 0  9994
2 40367   5.6947  72.5304 0004180 151.4306  99.7078  1.00262179 42236
METEOSAT-11 (MSG-4)     
1 40732U 15034A   26192.06770007  .00000066  00000+0  00000+0 0  9996
2 40732   3.2594  70.9611 0002250 352.6924 258.9505  1.00270573  7450
ELEKTRO-L 2             
1 41105U 15074A   26191.99167782 -.00000116  00000+0  00000+0 0  9993
2 41105   6.7498  70.2299 0000871 219.5442 341.6254  1.00272624 38740
SENTINEL-3A             
1 41335U 16011A   26192.20098082  .00000041  00000+0  35178-4 0  9996
2 41335  98.6238 259.2385 0001389  91.2614 268.8726 14.26739077541489
INSAT-3DR               
1 41752U 16054A   26192.16641972 -.00000070  00000+0  00000+0 0  9997
2 41752   0.0592  88.8489 0010634 181.5551 152.5908  1.00271972 36055
HIMAWARI-9              
1 41836U 16064A   26191.95122676  .00000000  00000+0  00000+0 0  9994
2 41836   0.0255  48.5124 0002290 128.2066 235.3557  1.00271409 35448
GOES 16                 
1 41866U 16071A   26192.23965389 -.00000084  00000+0  00000+0 0  9996
2 41866   0.3932  85.5177 0000522  95.6752  89.5444  1.00270907 35345
FENGYUN 4A              
1 41882U 16077A   26191.94784675 -.00000351  00000+0  00000+0 0  9991
2 41882   2.3791  80.0243 0008432 158.7953 155.0484  1.00270609 35166
CYGFM05                 
1 41884U 16078A   26192.15639308  .00016838  00000+0  21963-3 0  9991
2 41884  34.9563 101.7417 0006756 357.5838   2.4853 15.57723058532499
CYGFM04                 
1 41885U 16078B   26192.05013036  .00021532  00000+0  23003-3 0  9999
2 41885  34.9325  68.9003 0004748  37.6880 322.4178 15.62895697532730
CYGFM02                 
1 41886U 16078C   26192.00336472  .00025827  00000+0  24228-3 0  9998
2 41886  34.9407  63.0241 0005499  41.3782 318.7361 15.66134024532904
CYGFM01                 
1 41887U 16078D   26192.13437862  .00017706  00000+0  22476-3 0  9998
2 41887  34.9393 102.7463 0006722 350.7415   9.3185 15.58435350532449
CYGFM08                 
1 41888U 16078E   26192.05153122  .00019800  00000+0  22518-3 0  9998
2 41888  34.9430  82.2269 0006906  25.2754 334.8308 15.61289070532704
CYGFM07                 
1 41890U 16078G   26192.00913051  .00019239  00000+0  21805-3 0  9995
2 41890  34.9449  70.8303 0005183  38.2786 321.8307 15.61394635532725
CYGFM03                 
1 41891U 16078H   26192.04422426  .00019582  00000+0  22200-3 0  9992
2 41891  34.9402  72.5270 0005276  22.6605 337.4353 15.61383213532709
