OBJECT_NAME,OBJECT_ID,EPOCH,MEAN_MOTION,ECCENTRICITY,INCLINATION,RA_OF_ASC_NODE,ARG_OF_PERICENTER,MEAN_ANOMALY,EPHEMERIS_TYPE,CLASSIFICATION_TYPE,NORAD_CAT_ID,ELEMENT_SET_NO,REV_AT_EPOCH,BSTAR,MEAN_MOTION_DOT,MEAN_MOTION_DDOT
DMSP 5D-3 F16 (USA 172),2003-048A,2026-07-11T05:12:35.258400,14.14484849,.0008198,98.9887,216.2037,80.9282,350.7236,0,U,28054,999,17288,.38004E-5,-.38E-6,0
METEOSAT-9 (MSG-2),2005-049B,2026-07-10T17:14:33.488160,1.00270013,.0002029,9.4120,53.9304,357.9991,181.0196,0,U,28912,999,723,0,.124E-5,0
DMSP 5D-3 F17 (USA 191),2006-050A,2026-07-11T05:04:34.126176,14.14995998,.0009965,98.7385,198.2905,354.4858,5.6204,0,U,29522,999,1582,.21305E-4,-.2E-7,0
FENGYUN 3A,2008-026A,2026-07-09T17:49:54.676416,14.19575738,.00098153,98.6887,131.1547,65.9784,294.2419,0,U,32958,999,93860,.32429441E-4,.25E-6,0
GOES 14,2009-033A,2026-07-11T04:17:38.707008,1.00100133,.0001887,1.7487,82.7447,39.8560,358.4650,0,U,35491,999,683,0,-.349E-5,0
DMSP 5D-3 F18 (USA 210),2009-057A,2026-07-11T04:25:33.080160,14.14909957,.0010987,98.9053,172.9031,176.7483,183.3764,0,U,35951,999,86298,.12017E-3,.188E-5,0
EWS-G2 (GOES 15),2010-008A,2026-07-11T01:52:57.801792,1.00268091,.0005209,1.3404,82.5149,53.1298,244.9502,0,U,36411,999,5987,0,.28E-6,0
COMS 1,2010-032A,2026-07-11T01:28:45.123168,0.99168910,.0011274,4.8635,75.0680,14.7411,199.8313,0,U,36744,999,5132,0,-.236E-5,0
FENGYUN 3B,2010-059A,2026-07-11T05:04:43.436640,14.14846346,.0023068,98.9613,238.3265,117.4306,329.0249,0,U,37214,999,81082,.89081E-4,.127E-5,0
SUOMI NPP,2011-061A,2026-07-11T03:57:18.268128,14.19522148,.0000592,98.7956,132.8777,241.1986,118.9130,0,U,37849,999,76184,.33199E-4,.26E-6,0
METEOSAT-10 (MSG-3),2012-035B,2026-07-10T23:52:14.729952,1.00270042,.0001102,4.7253,60.8987,18.5793,207.5555,0,U,38552,999,5109,0,-.4E-7,0
METOP-B,2012-049A,2026-07-11T04:37:47.667648,14.21445692,.000105,98.6491,243.2117,280.7824,79.3236,0,U,38771,999,71667,.41953E-4,.48E-6,0
INSAT-3D,2013-038B,2026-07-11T03:37:38.807040,1.00270390,.0000505,1.9850,82.2390,82.7888,307.9720,0,U,39216,999,4732,0,-.334E-5,0
FENGYUN 3C,2013-052A,2026-07-11T05:08:18.430944,14.15760254,.001383,98.4995,164.9875,318.1394,41.8722,0,U,39260,999,66196,.33001E-4,.23E-6,0
METEOR-M 2,2014-037A,2026-07-11T05:15:15.831936,14.21468270,.0005408,98.5124,167.1075,339.9390,20.1575,0,U,40069,999,62273,.46077E-4,.59E-6,0
HIMAWARI-8,2014-060A,2026-07-09T21:09:54.851040,1.00269387,.00008296,0.0305,288.7018,203.5253,253.7182,0,U,40267,999,4298,0,-.264E-5,0
FENGYUN 2G,2014-090A,2026-07-10T19:42:21.488256,1.00262179,.000418,5.6947,72.5304,151.4306,99.7078,0,U,40367,999,4223,0,-.296E-5,0
METEOSAT-11 (MSG-4),2015-034A,2026-07-11T01:37:29.286048,1.00270573,.000225,3.2594,70.9611,352.6924,258.9505,0,U,40732,999,745,0,.66E-6,0
ELEKTRO-L 2,2015-074A,2026-07-10T23:48:00.963648,1.00272624,.0000871,6.7498,70.2299,219.5442,341.6254,0,U,41105,999,3874,0,-.116E-5,0
SENTINEL-3A,2016-011A,2026-07-11T04:49:24.742848,14.26739077,.0001389,98.6238,259.2385,91.2614,268.8726,0,U,41335,999,54148,.35178E-4,.41E-6,0
INSAT-3DR,2016-054A,2026-07-11T03:59:38.663808,1.00271972,.0010634,0.0592,88.8489,181.5551,152.5908,0,U,41752,999,3605,0,-.7E-6,0
HIMAWARI-9,2016-064A,2026-07-10T22:49:45.992064,1.00271409,.000229,0.0255,48.5124,128.2066,235.3557,0,U,41836,999,3544,0,0,0
GOES 16,2016-071A,2026-07-11T05:45:06.096096,1.00270907,.0000522,0.3932,85.5177,95.6752,89.5444,0,U,41866,999,3534,0,-.84E-6,0
FENGYUN 4A,2016-077A,2026-07-10T22:44:53.959200,1.00270609,.0008432,2.3791,80.0243,158.7953,155.0484,0,U,41882,999,3516,0,-.351E-5,0
CYGFM05,2016-078A,2026-07-11T03:45:12.362112,15.57723058,.0006756,34.9563,101.7417,357.5838,2.4853,0,U,41884,999,53249,.21963E-3,.16838E-3,0
CYGFM04,2016-078B,2026-07-11T01:12:11.263104,15.62895697,.0004748,34.9325,68.9003,37.6880,322.4178,0,U,41885,999,53273,.23003E-3,.21532E-3,0
CYGFM02,2016-078C,2026-07-11T00:04:50.711808,15.66134024,.0005499,34.9407,63.0241,41.3782,318.7361,0,U,41886,999,53290,.24228E-3,.25827E-3,0
CYGFM01,2016-078D,2026-07-11T03:13:30.312768,15.58435350,.0006722,34.9393,102.7463,350.7415,9.3185,0,U,41887,999,53244,.22476E-3,.17706E-3,0
CYGFM08,2016-078E,2026-07-11T01:14:12.297408,15.61289070,.0006906,34.9430,82.2269,25.2754,334.8308,0,U,41888,999,53270,.22518E-3,.198E-3,0
CYGFM07,2016-078G,2026-07-11T00:13:08.876064,15.61394635,.0005183,34.9449,70.8303,38.2786,321.8307,0,U,41890,999,53272,.21805E-3,.19239E-3,0
CYGFM03,2016-078H,2026-07-11T01:03:40.976064,15.61383213,.0005276,34.9402,72.5270,22.6605,337.4353,0,U,41891,999,53270,.222E-3,.19582E-3,0
